OBJECT_NAME,OBJECT_ID,EPOCH,MEAN_MOTION,ECCENTRICITY,INCLINATION,RA_OF_ASC_NODE,ARG_OF_PERICENTER,MEAN_ANOMALY,EPHEMERIS_TYPE,CLASSIFICATION_TYPE,NORAD_CAT_ID,ELEMENT_SET_NO,REV_AT_EPOCH,BSTAR,MEAN_MOTION_DOT,MEAN_MOTION_DDOT
MANDRAKE 2 BAKER,2021-059AF,2026-05-13T12:01:41.373984,15.57779611,.0004884,97.7021,323.3203,113.6266,246.5502,0,U,48908,999,27189,.24178E-3,.17871E-3,0
PACE-1,2021-059AG,2026-05-13T12:10:36.001632,15.74499176,.0002882,97.6799,327.8918,98.3452,261.8138,0,U,48909,999,27233,.35268E-3,.51245E-3,0
YAM-3,2021-059AN,2026-05-13T11:41:30.358752,15.47766082,.0006609,97.6993,318.1988,116.5392,243.6535,0,U,48915,999,27162,.14561E-3,.7452E-4,0
FARADAY_PHOENIX,2021-059AX,2026-05-13T12:12:44.360064,15.70692042,.0005121,97.6855,327.9095,109.3288,250.8528,0,U,48924,999,27220,.55824E-3,.69299E-3,0
DEMO8 (TENZING),2021-059CA,2026-05-13T11:25:28.450272,15.53645982,.0008281,97.7043,324.2894,111.0792,249.1346,0,U,48951,999,27191,.20114E-3,.12751E-3,0
NAPA-2,2021-059CN,2026-05-13T19:17:01.082400,15.85144395,.0002157,97.6772,328.4627,123.2688,236.8789,0,U,48963,999,27234,.51928E-3,.123321E-2,0
FENGYUN 3E,2021-062A,2026-05-13T19:31:51.457728,14.19899880,.0001796,98.7503,137.6048,145.3934,214.7360,0,U,49008,999,25170,-.17117E-3,-.407E-5,0
ISS (NAUKA),2021-066A,2026-05-13T10:11:17.530080,15.49204198,.0007529,51.6312,112.1826,54.1813,305.9874,0,U,49044,999,56654,.97698E-4,.4975E-4,0
STARLINK-3100,2021-082Q,2026-05-13T09:24:13.413024,14.98353340,.000388,69.9986,131.3091,265.6454,94.4262,0,U,49144,999,25567,.20352E-3,.2338E-4,0
CUTE,2021-088D,2026-05-13T05:22:00.323040,15.78597278,.0001685,97.4192,229.5484,271.3209,88.7865,0,U,49263,999,25701,.71034E-3,.12474E-2,0
2021-091B,2021-091B,2026-05-13T20:36:39.822336,15.18371913,.0013834,97.4483,321.9612,154.0584,206.1347,0,U,49316,999,25377,.10776E-3,.2151E-4,0
SDGSAT 1,2021-100A,2026-05-13T20:42:40.405824,15.19744038,.0009549,97.2668,182.0837,60.1469,300.0714,0,U,49387,999,25070,.84054E-4,.1733E-4,0
TEIKYOSAT-4 (OORURI),2021-102B,2026-05-13T12:23:40.030656,15.09379418,.0013487,97.3697,164.3465,57.3904,302.8625,0,U,49396,999,24749,.74141E-4,.1125E-4,0
Z-SAT,2021-102E,2026-05-13T20:34:39.105120,15.17989702,.001697,97.3360,170.2246,13.6490,346.5200,0,U,49399,999,24823,.60671E-4,.1171E-4,0
HIBARI,2021-102F,2026-05-13T08:57:54.703584,15.31007887,.0010369,97.3271,179.6879,331.6924,28.3752,0,U,49400,999,24886,.21029E-3,.6232E-4,0
KOSEN-1,2021-102H,2026-05-13T20:38:15.480096,15.26345575,.0012681,97.3217,176.6917,335.8232,24.2410,0,U,49402,999,24878,.19141E-3,.4911E-4,0
GLOBAL-14,2021-106A,2026-05-13T09:54:57.413664,15.48911628,.0014356,42.0032,137.4611,146.9488,213.2255,0,U,49469,999,25273,.25585E-3,.13927E-3,0
GAOFEN-3 02,2021-109A,2026-05-13T20:17:34.228320,14.42211768,.0004032,98.4103,142.4292,90.4624,269.7027,0,U,49495,999,23536,-.32413E-4,-.15E-5,0
GLOBAL-12,2021-115BA,2026-05-13T12:06:30.890016,15.51695674,.0002253,53.1952,211.0391,330.0254,30.0627,0,U,49772,999,25051,.31965E-3,.18935E-3,0
GLOBAL-13,2021-115BB,2026-05-13T12:28:10.905024,15.44797267,.0003267,53.1973,219.2174,27.8341,332.2841,0,U,49773,999,25040,.27217E-3,.12544E-3,0
GLOBAL-17,2021-120A,2026-05-13T17:02:21.861600,15.50516093,.0012935,41.9954,254.4491,5.7087,354.3902,0,U,49949,999,24954,.31241E-3,.18084E-3,0
GLOBAL-16,2021-120B,2026-05-13T17:50:44.441088,15.48608077,.0011181,41.9959,257.3666,355.3788,4.6950,0,U,49950,999,24950,.30659E-3,.16552E-3,0
XW-3 (CAS-9),2021-131B,2026-05-13T19:55:56.837280,14.41323082,.0003878,98.4955,226.4097,184.0510,176.0648,0,U,50466,999,23016,.10667E-3,.301E-5,0
ION SCV-004,2022-002K,2026-05-13T02:52:44.950080,15.30087952,.0009051,97.2861,191.4423,114.8106,245.4077,0,U,50993,999,23993,.11365E-3,.3238E-4,0
ETV-A1,2022-002CE,2026-05-13T20:12:37.281024,15.39937540,.000688,97.2899,200.2626,107.8569,252.3428,0,U,51060,999,24055,.18076E-3,.7118E-4,0
BRO-5,2022-002CF,2026-05-13T19:47:59.144640,15.45492079,.0006586,97.3016,207.2395,97.5738,262.6259,0,U,51061,999,24094,.22631E-3,.1077E-3,0
LUDI TANCE 1-01A (L-SAR 01A),2022-007A,2026-05-13T19:52:35.414688,14.88414211,.0001599,97.8091,141.7374,90.2931,269.8469,0,U,51284,999,23336,.4711E-4,.382E-5,0
LUDI TANCE 1-01B (L-SAR 01B),2022-018A,2026-05-13T20:40:58.340640,14.88415061,.000161,97.8098,141.7663,92.8420,267.2981,0,U,51822,999,22860,.425E-4,.34E-5,0
