MANDRAKE 2 BAKER        
1 48908U 21059AF  26133.50117331  .00017871  00000+0  24178-3 0  9990
2 48908  97.7021 323.3203 0004884 113.6266 246.5502 15.57779611271892
PACE-1                  
1 48909U 21059AG  26133.50736113  .00051245  00000+0  35268-3 0  9991
2 48909  97.6799 327.8918 0002882  98.3452 261.8138 15.74499176272337
YAM-3                   
1 48915U 21059AN  26133.48715693  .00007452  00000+0  14561-3 0  9999
2 48915  97.6993 318.1988 0006609 116.5392 243.6535 15.47766082271620
FARADAY_PHOENIX         
1 48924U 21059AX  26133.50884676  .00069299  00000+0  55824-3 0  9994
2 48924  97.6855 327.9095 0005121 109.3288 250.8528 15.70692042272203
DEMO8 (TENZING)         
1 48951U 21059CA  26133.47602373  .00012751  00000+0  20114-3 0  9997
2 48951  97.7043 324.2894 0008281 111.0792 249.1346 15.53645982271918
NAPA-2                  
1 48963U 21059CN  26133.80348475  .00123321  00000+0  51928-3 0  9990
2 48963  97.6772 328.4627 0002157 123.2688 236.8789 15.85144395272343
FENGYUN 3E              
1 49008U 21062A   26133.81379002 -.00000407  00000+0 -17117-3 0  9999
2 49008  98.7503 137.6048 0001796 145.3934 214.7360 14.19899880251701
ISS (NAUKA)             
1 49044U 21066A   26133.42450845  .00004975  00000+0  97698-4 0  9990
2 49044  51.6312 112.1826 0007529  54.1813 305.9874 15.49204198566542
STARLINK-3100           
1 49144U 21082Q   26133.39182191  .00002338  00000+0  20352-3 0  9994
2 49144  69.9986 131.3091 0003880 265.6454  94.4262 14.98353340255672
CUTE                    
1 49263U 21088D   26133.22361485  .00124740  00000+0  71034-3 0  9994
2 49263  97.4192 229.5484 0001685 271.3209  88.7865 15.78597278257012
2021-091B               
1 49316U 21091B   26133.85879424  .00002151  00000+0  10776-3 0  9990
2 49316  97.4483 321.9612 0013834 154.0584 206.1347 15.18371913253776
SDGSAT 1                
1 49387U 21100A   26133.86296766  .00001733  00000+0  84054-4 0  9998
2 49387  97.2668 182.0837 0009549  60.1469 300.0714 15.19744038250704
TEIKYOSAT-4 (OORURI)    
1 49396U 21102B   26133.51643554  .00001125  00000+0  74141-4 0  9994
2 49396  97.3697 164.3465 0013487  57.3904 302.8625 15.09379418247493
Z-SAT                   
1 49399U 21102E   26133.85739705  .00001171  00000+0  60671-4 0  9992
2 49399  97.3360 170.2246 0016970  13.6490 346.5200 15.17989702248230
HIBARI                  
1 49400U 21102F   26133.37354981  .00006232  00000+0  21029-3 0  9997
2 49400  97.3271 179.6879 0010369 331.6924  28.3752 15.31007887248867
KOSEN-1                 
1 49402U 21102H   26133.85990139  .00004911  00000+0  19141-3 0  9997
2 49402  97.3217 176.6917 0012681 335.8232  24.2410 15.26345575248786
GLOBAL-14               
1 49469U 21106A   26133.41316451  .00013927  00000+0  25585-3 0  9991
2 49469  42.0032 137.4611 0014356 146.9488 213.2255 15.48911628252731
GAOFEN-3 02             
1 49495U 21109A   26133.84553505 -.00000150  00000+0 -32413-4 0  9998
2 49495  98.4103 142.4292 0004032  90.4624 269.7027 14.42211768235364
GLOBAL-12               
1 49772U 21115BA  26133.50452419  .00018935  00000+0  31965-3 0  9996
2 49772  53.1952 211.0391 0002253 330.0254  30.0627 15.51695674250512
GLOBAL-13               
1 49773U 21115BB  26133.51957066  .00012544  00000+0  27217-3 0  9991
2 49773  53.1973 219.2174 0003267  27.8341 332.2841 15.44797267250405
GLOBAL-17               
1 49949U 21120A   26133.70997525  .00018084  00000+0  31241-3 0  9994
2 49949  41.9954 254.4491 0012935   5.7087 354.3902 15.50516093249540
GLOBAL-16               
1 49950U 21120B   26133.74356992  .00016552  00000+0  30659-3 0  9997
2 49950  41.9959 257.3666 0011181 355.3788   4.6950 15.48608077249502
XW-3 (CAS-9)            
1 50466U 21131B   26133.83051895  .00000301  00000+0  10667-3 0  9999
2 50466  98.4955 226.4097 0003878 184.0510 176.0648 14.41323082230160
ION SCV-004             
1 50993U 22002K   26133.11996470  .00003238  00000+0  11365-3 0  9998
2 50993  97.2861 191.4423 0009051 114.8106 245.4077 15.30087952239936
ETV-A1                  
1 51060U 22002CE  26133.84209816  .00007118  00000+0  18076-3 0  9992
2 51060  97.2899 200.2626 0006880 107.8569 252.3428 15.39937540240552
BRO-5                   
1 51061U 22002CF  26133.82499010  .00010770  00000+0  22631-3 0  9998
2 51061  97.3016 207.2395 0006586  97.5738 262.6259 15.45492079240940
LUDI TANCE 1-01A (L-SA*)
1 51284U 22007A   26133.82818767  .00000382  00000+0  47110-4 0  9992
2 51284  97.8091 141.7374 0001599  90.2931 269.8469 14.88414211233366
LUDI TANCE 1-01B (L-SA*)
1 51822U 22018A   26133.86178635  .00000340  00000+0  42500-4 0  9991
2 51822  97.8098 141.7663 0001610  92.8420 267.2981 14.88415061228603
